[
  {
    "_id":
    {
      "$oid":"5703b161240d7ca718151aba"
    },
    "bulk_delivery_id":null,
    "city":"绍兴市",
    "district":"越城区",
    "name":"包叶菁",
    "phone":"18358586689",
    "postcode":"312000",
    "province":"浙江省",
    "street":"城东香莲公寓西区17幢401室"
  },
  {
    "_id":
    {
      "$oid":"5703b161240d7ca718151abb"
    },
    "bulk_delivery_id":null,
    "city":"珠海市",
    "district":"香洲区",
    "name":"王芷芊",
    "phone":"18620614690",
    "postcode":"510000",
    "province":"广东省",
    "street":"唐家湾镇会同村uic新小镇校园内"
  },
  {
    "_id":
    {
      "$oid":"5703b161240d7ca718151abc"
    },
    "bulk_delivery_id":null,
    "city":"上海市",
    "district":"徐汇区",
    "name":"孙仪冰",
    "phone":"13817793360",
    "postcode":"215000",
    "province":"上海",
    "street":"番禺路1028号数娱大厦四楼 408室"
  },
  {
    "_id":
    {
      "$oid":"5703b161240d7ca718151abd"
    },
    "bulk_delivery_id":null,
    "city":"厦门市",
    "district":"思明区",
    "name":"梁滨滨",
    "phone":"18650000580",
    "postcode":"000000",
    "province":"福建省",
    "street":"筼筜街道明发商业广场南区393"
  },
  {
    "_id":
    {
      "$oid":"5703b161240d7ca718151abe"
    },
    "bulk_delivery_id":null,
    "city":"德阳市",
    "district":"旌阳区",
    "name":"向英",
    "phone":"13908104556",
    "postcode":"618000",
    "province":"四川省",
    "street":"宝山街398号旌城印象"
  },
  {
    "_id":
    {
      "$oid":"5703b161240d7ca718151abf"
    },
    "bulk_delivery_id":null,
    "city":"深圳市",
    "district":"罗湖区",
    "name":"廖乐欣",
    "phone":"13699822021",
    "postcode":"518100",
    "province":"广东省",
    "street":"莲塘街道国威路罗湖外语学校高中部"
  },
  {
    "_id":
    {
      "$oid":"5703b161240d7ca718151ac0"
    },
    "bulk_delivery_id":null,
    "city":"北京市",
    "district":"朝阳区",
    "name":"薛凡 ",
    "phone":"13810688721",
    "postcode":"100125",
    "province":"北京",
    "street":"太阳宫曙光里8号楼901"
  },
  {
    "_id":
    {
      "$oid":"5703b161240d7ca718151ac1"
    },
    "bulk_delivery_id":null,
    "city":"深圳市",
    "district":"罗湖区",
    "name":"权志币 ",
    "phone":"15012591289",
    "postcode":"518000",
    "province":"广东省",
    "street":"莲塘街道罗湖外语学校高中部"
  },
  {
    "_id":
    {
      "$oid":"5703b161240d7ca718151ac2"
    },
    "bulk_delivery_id":null,
    "city":"成都市",
    "district":"新都区",
    "name":"黄子清 ",
    "phone":"13576261220",
    "postcode":"610500",
    "province":"四川省",
    "street":"新都镇蜀龙大道中段620号四川音乐学院"
  },
  {
    "_id":
    {
      "$oid":"5703b161240d7ca718151ac3"
    },
    "bulk_delivery_id":null,
    "city":"北京市",
    "district":"西城区",
    "name":"张梦 ",
    "phone":"15222737473",
    "postcode":"100002",
    "province":"北京",
    "street":"展览路街道西直门西环广场T310层 b7-b8"
  },
  {
    "_id":
    {
      "$oid":"5703b161240d7ca718151ac4"
    },
    "bulk_delivery_id":null,
    "city":"珠海市",
    "district":"金湾区",
    "name":"胡楚琳 ",
    "phone":"13610260426",
    "postcode":"519015",
    "province":"广东省",
    "street":"三灶镇草堂湾吉林大学珠海学院南门"
  },
  {
    "_id":
    {
      "$oid":"5703b161240d7ca718151ac5"
    },
    "bulk_delivery_id":null,
    "city":"沈阳市",
    "district":"皇姑区",
    "name":"洪海 ",
    "phone":"18809800076",
    "postcode":"110015",
    "province":"辽宁省",
    "street":"三台子街道文储路69号 沈阳市收容教育所"
  },
  {
    "_id":
    {
      "$oid":"5703b161240d7ca718151ac6"
    },
    "bulk_delivery_id":null,
    "city":"杭州市",
    "district":"萧山区",
    "name":"吴敏",
    "phone":"18969938336",
    "postcode":"311200",
    "province":"浙江省",
    "street":"金城路1098号水务大厦北干营业所203室"
  }
]